[{"OBJECT_NAME":"BRO-13","OBJECT_ID":"2024-043K","EPOCH":"2026-03-09T22:19:47.829216","MEAN_MOTION":14.96296765,"ECCENTRICITY":0.00083947,"INCLINATION":97.8333,"RA_OF_ASC_NODE":199.7446,"ARG_OF_PERICENTER":338.0901,"MEAN_ANOMALY":21.996,"EPHEMERIS_TYPE":0,"CLASSIFICATION_TYPE":"U","NORAD_CAT_ID":59107,"ELEMENT_SET_NO":999,"REV_AT_EPOCH":10977,"BSTAR":0.00013050562,"MEAN_MOTION_DOT":1.416e-5,"MEAN_MOTION_DDOT":0},{"OBJECT_NAME":"STARLINK-34583","OBJECT_ID":"2025-142T","EPOCH":"2026-03-09T22:26:53.700864","MEAN_MOTION":14.98334024,"ECCENTRICITY":0.00022736,"INCLINATION":70.0033,"RA_OF_ASC_NODE":313.961,"ARG_OF_PERICENTER":270.4759,"MEAN_ANOMALY":89.614,"EPHEMERIS_TYPE":0,"CLASSIFICATION_TYPE":"U","NORAD_CAT_ID":64713,"ELEMENT_SET_NO":999,"REV_AT_EPOCH":3949,"BSTAR":0.00037171575,"MEAN_MOTION_DOT":4.345e-5,"MEAN_MOTION_DDOT":0}]
